0 FENGYUN 1C DEB
1 35120U 99025DKY 13283.32995318  .00002112  00000-0  14545-2 0  1969
2 35120 097.9968 314.5358 0186549 072.2809 289.8914 13.92133325297248
0 FENGYUN 1C DEB
1 35120U 99025DKY 13285.34235481  .00002143  00000-0  14755-2 0  1979
2 35120 097.9979 316.2753 0186408 066.5665 295.5190 13.92142900297528
0 FENGYUN 1C DEB
1 35120U 99025DKY 13287.28286953  .00002198  00000-0  15129-2 0  1981
2 35120 097.9957 317.9427 0186181 060.7392 301.2673 13.92153234297793
0 FENGYUN 1C DEB
1 35120U 99025DKY 13287.85782581  .00002255  00000-0  15471-2 0  1997
2 35120 098.0013 318.4539 0187901 060.0371 301.9758 13.92157545297878
0 FENGYUN 1C DEB
1 35120U 99025DKY 13289.29521735  .00002319  00000-0  15902-2 0  2002
2 35120 097.9974 319.6883 0187912 055.5976 306.2964 13.92166118298075
0 FENGYUN 1C DEB
1 35120U 99025DKY 13290.87634672  .00002380  00000-0  16322-2 0  2019
2 35120 097.9962 321.0500 0187604 050.9966 310.8111 13.92175387298298
0 FENGYUN 1C DEB
1 35120U 99025DKY 13293.31987816  .00002446  00000-0  16765-2 0  2027
2 35120 097.9946 323.1605 0187483 043.9459 317.6646 13.92189356298630
0 FENGYUN 1C DEB
1 35120U 99025DKY 13295.33218321  .00002474  00000-0  16964-2 0  2032
2 35120 097.9946 324.8986 0187047 038.4765 322.9785 13.92200179298916
